start=new Date('2023-04-28T00:00:00.000Z').valueOf();
sats=[{"CLASSIFICATION_TYPE":"U","SITE":"AFETR","TIME_SYSTEM":"UTC","INCLINATION":"53.0551","MEAN_ANOMALY":"279.4476","REV_AT_EPOCH":"13386","OBJECT_TYPE":"PAYLOAD","LAUNCH_DATE":"2020-11-25","DECAY_DATE":null,"GP_ID":"230833129","MEAN_MOTION_DDOT":"0.0000000000000","RCS_SIZE":"LARGE","PERIAPSIS":"546.278","SEMIMAJOR_AXIS":"6925.258","RA_OF_ASC_NODE":"329.8774","COUNTRY_CODE":"US","MEAN_MOTION_DOT":"0.00020099","FILE":"3894751","OBJECT_NAME":"STARLINK-1867","ELEMENT_SET_NO":"999","BSTAR":"0.00136330000000","ECCENTRICITY":"0.00012210","NORAD_CAT_ID":"47153","EPHEMERIS_TYPE":"0","MEAN_ELEMENT_THEORY":"SGP4","APOAPSIS":"547.969","EPOCH":"2023-04-27T01:17:59.347104","PERIOD":"95.590","ARG_OF_PERICENTER":"80.6651","CENTER_NAME":"EARTH","MEAN_MOTION":"15.06429496","TLE_LINE2":"2 47153  53.0551 329.8774 0001221  80.6651 279.4476 15.06429496133869","REF_FRAME":"TEME","TLE_LINE1":"1 47153U 20088AH  23117.05415911  .00020099  00000-0  13633-2 0  9996","OBJECT_ID":"2020-088AH"},{"RA_OF_ASC_NODE":"306.1660","SEMIMAJOR_AXIS":"6735.037","MEAN_MOTION_DDOT":"0.0000000000000","RCS_SIZE":"LARGE","PERIAPSIS":"356.273","DECAY_DATE":null,"GP_ID":"230813569","LAUNCH_DATE":"2020-11-25","REV_AT_EPOCH":"13449","MEAN_ANOMALY":"175.5825","OBJECT_TYPE":"PAYLOAD","INCLINATION":"53.0518","TIME_SYSTEM":"UTC","CLASSIFICATION_TYPE":"U","SITE":"AFETR","OBJECT_ID":"2020-088AJ","TLE_LINE2":"2 47154  53.0518 306.1660 0000935  82.0046 175.5825 15.70698229134497","REF_FRAME":"TEME","TLE_LINE1":"1 47154U 20088AJ  23117.66667824  .01370642  00000-0  96266-2 0  9992","CENTER_NAME":"EARTH","MEAN_MOTION":"15.70698229","APOAPSIS":"357.532","ARG_OF_PERICENTER":"82.0046","PERIOD":"91.679","EPOCH":"2023-04-27T16:00:00.999936","MEAN_ELEMENT_THEORY":"SGP4","ELEMENT_SET_NO":"999","BSTAR":"0.00962660000000","ECCENTRICITY":"0.00009350","NORAD_CAT_ID":"47154","EPHEMERIS_TYPE":"0","OBJECT_NAME":"STARLINK-1868","COUNTRY_CODE":"US","MEAN_MOTION_DOT":"0.01370642","FILE":"3894731"},{"PERIAPSIS":"546.210","RCS_SIZE":"LARGE","MEAN_MOTION_DDOT":"0.0000000000000","GP_ID":"230834127","DECAY_DATE":null,"RA_OF_ASC_NODE":"335.1935","SEMIMAJOR_AXIS":"6925.192","INCLINATION":"53.0552","TIME_SYSTEM":"UTC","SITE":"AFETR","CLASSIFICATION_TYPE":"U","LAUNCH_DATE":"2020-11-25","OBJECT_TYPE":"PAYLOAD","MEAN_ANOMALY":"247.8027","REV_AT_EPOCH":"13377","MEAN_MOTION":"15.06451168","CENTER_NAME":"EARTH","PERIOD":"95.589","EPOCH":"2023-04-26T22:19:32.556288","ARG_OF_PERICENTER":"112.3092","APOAPSIS":"547.904","OBJECT_ID":"2020-088AK","TLE_LINE1":"1 47155U 20088AK  23116.93023792  .00031490  00000-0  21206-2 0  9998","REF_FRAME":"TEME","TLE_LINE2":"2 47155  53.0552 335.1935 0001223 112.3092 247.8027 15.06451168133777","OBJECT_NAME":"STARLINK-1869","FILE":"3894751","MEAN_MOTION_DOT":"0.00031490","COUNTRY_CODE":"US","MEAN_ELEMENT_THEORY":"SGP4","EPHEMERIS_TYPE":"0","ECCENTRICITY":"0.00012230","NORAD_CAT_ID":"47155","BSTAR":"0.00212060000000","ELEMENT_SET_NO":"999"},{"REF_FRAME":"TEME","TLE_LINE2":"2 47157  53.0541 322.3393 0001791 120.0385 240.0782 15.06446809134011","TLE_LINE1":"1 47157U 20088AM  23117.56510138  .00013901  00000-0  94906-3 0  9990","OBJECT_ID":"2020-088AM","APOAPSIS":"548.310","PERIOD":"95.589","ARG_OF_PERICENTER":"120.0385","EPOCH":"2023-04-27T13:33:44.759232","CENTER_NAME":"EARTH","MEAN_MOTION":"15.06446809","NORAD_CAT_ID":"47157","ECCENTRICITY":"0.00017910","BSTAR":"0.00094906000000","ELEMENT_SET_NO":"999","EPHEMERIS_TYPE":"0","MEAN_ELEMENT_THEORY":"SGP4","COUNTRY_CODE":"US","FILE":"3894751","MEAN_MOTION_DOT":"0.00013901","OBJECT_NAME":"STARLINK-1871","SEMIMAJOR_AXIS":"6925.205","RA_OF_ASC_NODE":"322.3393","GP_ID":"230832879","DECAY_DATE":null,"MEAN_MOTION_DDOT":"0.0000000000000","PERIAPSIS":"545.830","RCS_SIZE":"LARGE","REV_AT_EPOCH":"13401","MEAN_ANOMALY":"240.0782","OBJECT_TYPE":"PAYLOAD","LAUNCH_DATE":"2020-11-25","SITE":"AFETR","CLASSIFICATION_TYPE":"U","INCLINATION":"53.0541","TIME_SYSTEM":"UTC"},{"OBJECT_NAME":"STARLINK-1873","FILE":"3894845","MEAN_MOTION_DOT":"0.00013264","COUNTRY_CODE":"US","MEAN_ELEMENT_THEORY":"SGP4","EPHEMERIS_TYPE":"0","NORAD_CAT_ID":"47158","ECCENTRICITY":"0.00010600","BSTAR":"0.00090695000000","ELEMENT_SET_NO":"999","MEAN_MOTION":"15.06428427","CENTER_NAME":"EARTH","PERIOD":"95.590","EPOCH":"2023-04-27T20:29:02.714496","ARG_OF_PERICENTER":"64.2355","APOAPSIS":"547.861","OBJECT_ID":"2020-088AN","TLE_LINE1":"1 47158U 20088AN  23117.85350364  .00013264  00000-0  90695-3 0  9999","REF_FRAME":"TEME","TLE_LINE2":"2 47158  53.0536 311.0455 0001060  64.2355 295.8743 15.06428427134443","INCLINATION":"53.0536","TIME_SYSTEM":"UTC","SITE":"AFETR","CLASSIFICATION_TYPE":"U","LAUNCH_DATE":"2020-11-25","OBJECT_TYPE":"PAYLOAD","MEAN_ANOMALY":"295.8743","REV_AT_EPOCH":"13444","PERIAPSIS":"546.392","RCS_SIZE":"LARGE","MEAN_MOTION_DDOT":"0.0000000000000","GP_ID":"230843025","DECAY_DATE":null,"RA_OF_ASC_NODE":"311.0455","SEMIMAJOR_AXIS":"6925.261"},{"SEMIMAJOR_AXIS":"6925.120","RA_OF_ASC_NODE":"311.7913","DECAY_DATE":null,"GP_ID":"230843032","RCS_SIZE":"LARGE","PERIAPSIS":"546.552","MEAN_MOTION_DDOT":"0.0000000000000","OBJECT_TYPE":"PAYLOAD","REV_AT_EPOCH":"13442","MEAN_ANOMALY":"318.8236","LAUNCH_DATE":"2020-11-25","CLASSIFICATION_TYPE":"U","SITE":"AFETR","TIME_SYSTEM":"UTC","INCLINATION":"53.0544","TLE_LINE1":"1 47161U 20088AR  23117.68760639  .00020743  00000-0  14045-2 0  9998","TLE_LINE2":"2 47161  53.0544 311.7913 0000625  41.2801 318.8236 15.06474661134421","REF_FRAME":"TEME","OBJECT_ID":"2020-088AR","PERIOD":"95.587","ARG_OF_PERICENTER":"41.2801","EPOCH":"2023-04-27T16:30:09.192096","APOAPSIS":"547.418","MEAN_MOTION":"15.06474661","CENTER_NAME":"EARTH","EPHEMERIS_TYPE":"0","BSTAR":"0.00140450000000","ELEMENT_SET_NO":"999","NORAD_CAT_ID":"47161","ECCENTRICITY":"0.00006250","MEAN_ELEMENT_THEORY":"SGP4","MEAN_MOTION_DOT":"0.00020743","FILE":"3894845","COUNTRY_CODE":"US","OBJECT_NAME":"STARLINK-1876"},{"RA_OF_ASC_NODE":"321.5136","SEMIMAJOR_AXIS":"6925.157","MEAN_MOTION_DDOT":"0.0000000000000","RCS_SIZE":"LARGE","PERIAPSIS":"546.423","DECAY_DATE":null,"GP_ID":"230843027","LAUNCH_DATE":"2020-11-25","MEAN_ANOMALY":"249.0301","REV_AT_EPOCH":"13429","OBJECT_TYPE":"PAYLOAD","TIME_SYSTEM":"UTC","INCLINATION":"53.0536","CLASSIFICATION_TYPE":"U","SITE":"AFETR","OBJECT_ID":"2020-088AS","TLE_LINE2":"2 47162  53.0536 321.5136 0000865 111.0781 249.0301 15.06462440134293","REF_FRAME":"TEME","TLE_LINE1":"1 47162U 20088AS  23117.74937645  .00023398  00000-0  15818-2 0  9997","CENTER_NAME":"EARTH","MEAN_MOTION":"15.06462440","APOAPSIS":"547.621","ARG_OF_PERICENTER":"111.0781","PERIOD":"95.588","EPOCH":"2023-04-27T17:59:06.125280","MEAN_ELEMENT_THEORY":"SGP4","BSTAR":"0.00158180000000","ELEMENT_SET_NO":"999","ECCENTRICITY":"0.00008650","NORAD_CAT_ID":"47162","EPHEMERIS_TYPE":"0","OBJECT_NAME":"STARLINK-1877","COUNTRY_CODE":"US","MEAN_MOTION_DOT":"0.00023398","FILE":"3894845"},{"OBJECT_TYPE":"PAYLOAD","REV_AT_EPOCH":"13384","MEAN_ANOMALY":"293.9186","LAUNCH_DATE":"2020-11-25","CLASSIFICATION_TYPE":"U","SITE":"AFETR","TIME_SYSTEM":"UTC","INCLINATION":"53.0542","SEMIMAJOR_AXIS":"6925.230","RA_OF_ASC_NODE":"333.1608","DECAY_DATE":null,"GP_ID":"230833379","RCS_SIZE":"LARGE","PERIAPSIS":"546.072","MEAN_MOTION_DDOT":"0.0000000000000","EPHEMERIS_TYPE":"0","BSTAR":"0.00146460000000","ELEMENT_SET_NO":"999","ECCENTRICITY":"0.00014770","NORAD_CAT_ID":"47163","MEAN_ELEMENT_THEORY":"SGP4","MEAN_MOTION_DOT":"0.00021624","FILE":"3894751","COUNTRY_CODE":"US","OBJECT_NAME":"STARLINK-1878","TLE_LINE1":"1 47163U 20088AT  23117.38358455  .00021624  00000-0  14646-2 0  9992","TLE_LINE2":"2 47163  53.0542 333.1608 0001477  66.1958 293.9186 15.06438720133843","REF_FRAME":"TEME","OBJECT_ID":"2020-088AT","EPOCH":"2023-04-27T09:12:21.705120","PERIOD":"95.590","ARG_OF_PERICENTER":"66.1958","APOAPSIS":"548.118","MEAN_MOTION":"15.06438720","CENTER_NAME":"EARTH"},{"SEMIMAJOR_AXIS":"6925.266","RA_OF_ASC_NODE":"302.6147","DECAY_DATE":null,"GP_ID":"230843204","MEAN_MOTION_DDOT":"0.0000000000000","RCS_SIZE":"LARGE","PERIAPSIS":"546.215","MEAN_ANOMALY":"265.4173","REV_AT_EPOCH":"13453","OBJECT_TYPE":"PAYLOAD","LAUNCH_DATE":"2020-11-25","CLASSIFICATION_TYPE":"U","SITE":"AFETR","TIME_SYSTEM":"UTC","INCLINATION":"53.0537","TLE_LINE2":"2 47164  53.0537 302.6147 0001323  94.6967 265.4173 15.06427020134531","REF_FRAME":"TEME","TLE_LINE1":"1 47164U 20088AU  23117.50427998  .00019825  00000-0  13451-2 0  9999","OBJECT_ID":"2020-088AU","APOAPSIS":"548.047","PERIOD":"95.590","ARG_OF_PERICENTER":"94.6967","EPOCH":"2023-04-27T12:06:09.790272","CENTER_NAME":"EARTH","MEAN_MOTION":"15.06427020","BSTAR":"0.00134510000000","ELEMENT_SET_NO":"999","ECCENTRICITY":"0.00013230","NORAD_CAT_ID":"47164","EPHEMERIS_TYPE":"0","MEAN_ELEMENT_THEORY":"SGP4","COUNTRY_CODE":"US","MEAN_MOTION_DOT":"0.00019825","FILE":"3894845","OBJECT_NAME":"STARLINK-1879"},{"PERIAPSIS":"546.543","RCS_SIZE":"LARGE","MEAN_MOTION_DDOT":"0.0000000000000","GP_ID":"230834379","DECAY_DATE":null,"RA_OF_ASC_NODE":"324.6768","SEMIMAJOR_AXIS":"6925.314","TIME_SYSTEM":"UTC","INCLINATION":"53.0544","SITE":"AFETR","CLASSIFICATION_TYPE":"U","LAUNCH_DATE":"2020-11-25","OBJECT_TYPE":"PAYLOAD","REV_AT_EPOCH":"13393","MEAN_ANOMALY":"255.2584","MEAN_MOTION":"15.06411249","CENTER_NAME":"EARTH","PERIOD":"95.591","EPOCH":"2023-04-27T01:05:20.836320","ARG_OF_PERICENTER":"104.8507","APOAPSIS":"547.816","OBJECT_ID":"2020-088AV","TLE_LINE1":"1 47165U 20088AV  23117.04538005  .00019996  00000-0  13571-2 0  9993","REF_FRAME":"TEME","TLE_LINE2":"2 47165  53.0544 324.6768 0000919 104.8507 255.2584 15.06411249133939","OBJECT_NAME":"STARLINK-1880","FILE":"3894751","MEAN_MOTION_DOT":"0.00019996","COUNTRY_CODE":"US","MEAN_ELEMENT_THEORY":"SGP4","EPHEMERIS_TYPE":"0","NORAD_CAT_ID":"47165","ECCENTRICITY":"0.00009190","ELEMENT_SET_NO":"999","BSTAR":"0.00135710000000"}];
